STARLINK-6308           
1 56534U 23065AH  23318.91155231 -.00000202  00000+0  14707-6 0  9992
2 56534  43.0032 113.3954 0001325 272.9809  87.0882 15.02540674 28761
STARLINK-6309           
1 56535U 23065AJ  23318.89772716  .00000130  00000+0  24715-4 0  9990
2 56535  43.0030 139.3241 0001185 274.2870  85.7837 15.02539499 29246
STARLINK-6312           
1 56536U 23065AK  23318.89883817  .00001512  00000+0  12694-3 0  9993
2 56536  43.0027 139.3330 0001034 269.2817  90.7906 15.02534828 29244
STARLINK-6311           
1 56537U 23065AL  23318.89439935  .00000647  00000+0  62974-4 0  9997
2 56537  43.0036 139.3001 0001228 273.3001  86.7701 15.02536505 29248
STARLINK-6314           
1 56538U 23065AM  23318.79624699 -.00000883  00000+0 -50282-4 0  9993
2 56538  43.0040 113.3916 0001172 278.1726  81.8984 15.02530489 29532
STARLINK-6135           
1 56539U 23065AN  23318.89107012  .00000569  00000+0  57220-4 0  9998
2 56539  43.0034 139.2756 0001205 277.3946  82.6759 15.02534893 29247
STARLINK-6136           
1 56540U 23065AP  23318.90216942  .00000356  00000+0  41390-4 0  9990
2 56540  43.0034 139.3589 0001270 268.8739  91.1957 15.02537303 29245
STARLINK-6249           
1 56541U 23065AQ  23318.88218837 -.00000042  00000+0  11924-4 0  9996
2 56541  43.0029 139.2073 0001135 274.0010  86.0703 15.02538606 28460
STARLINK-6266           
1 56542U 23065AR  23318.88774187  .00000268  00000+0  34875-4 0  9991
2 56542  43.0032 139.2490 0001215 273.9400  86.1304 15.02534104 29242
STARLINK-6228           
1 56543U 23065AS  23318.87553087 -.00000731  00000+0 -39040-4 0  9991
2 56543  43.0031 139.1562 0001187 272.6517  87.4189 15.02538327 29240
STARLINK-6226           
1 56544U 23065AT  23318.88440742  .00000980  00000+0  87588-4 0  9990
2 56544  43.0032 139.2244 0001293 277.5245  82.5450 15.02539089 29243
STARLINK-6086           
1 56545U 23065AU  23318.87109098  .00000182  00000+0  28575-4 0  9991
2 56545  43.0033 139.1230 0001219 272.5794  87.4909 15.02535791 29240
STARLINK-6187           
1 56546U 23065AV  23318.87885883 -.00001544  00000+0 -99245-4 0  9992
2 56546  43.0027 139.1820 0001137 268.9354  91.1358 15.02540347 28465
