[
    {
        "OBJECT_NAME": "STARLINK-6308",
        "OBJECT_ID": "2023-065AH",
        "EPOCH": "2023-11-14T21:52:38.119584",
        "MEAN_MOTION": 15.02540674,
        "ECCENTRICITY": 0.0001325,
        "INCLINATION": 43.0032,
        "RA_OF_ASC_NODE": 113.3954,
        "ARG_OF_PERICENTER": 272.9809,
        "MEAN_ANOMALY": 87.0882,
        "EPHEMERIS_TYPE": 0,
        "CLASSIFICATION_TYPE": "U",
        "NORAD_CAT_ID": 56534,
        "ELEMENT_SET_NO": 999,
        "REV_AT_EPOCH": 2876,
        "BSTAR": 1.4707e-7,
        "MEAN_MOTION_DOT": -2.02e-6,
        "MEAN_MOTION_DDOT": 0
    },
    {
        "OBJECT_NAME": "STARLINK-6309",
        "OBJECT_ID": "2023-065AJ",
        "EPOCH": "2023-11-14T21:32:43.626624",
        "MEAN_MOTION": 15.02539499,
        "ECCENTRICITY": 0.0001185,
        "INCLINATION": 43.003,
        "RA_OF_ASC_NODE": 139.3241,
        "ARG_OF_PERICENTER": 274.287,
        "MEAN_ANOMALY": 85.7837,
        "EPHEMERIS_TYPE": 0,
        "CLASSIFICATION_TYPE": "U",
        "NORAD_CAT_ID": 56535,
        "ELEMENT_SET_NO": 999,
        "REV_AT_EPOCH": 2924,
        "BSTAR": 2.4715e-5,
        "MEAN_MOTION_DOT": 1.3e-6,
        "MEAN_MOTION_DDOT": 0
    },
    {
        "OBJECT_NAME": "STARLINK-6312",
        "OBJECT_ID": "2023-065AK",
        "EPOCH": "2023-11-14T21:34:19.617888",
        "MEAN_MOTION": 15.02534828,
        "ECCENTRICITY": 0.0001034,
        "INCLINATION": 43.0027,
        "RA_OF_ASC_NODE": 139.333,
        "ARG_OF_PERICENTER": 269.2817,
        "MEAN_ANOMALY": 90.7906,
        "EPHEMERIS_TYPE": 0,
        "CLASSIFICATION_TYPE": "U",
        "NORAD_CAT_ID": 56536,
        "ELEMENT_SET_NO": 999,
        "REV_AT_EPOCH": 2924,
        "BSTAR": 0.00012694,
        "MEAN_MOTION_DOT": 1.512e-5,
        "MEAN_MOTION_DDOT": 0
    },
    {
        "OBJECT_NAME": "STARLINK-6311",
        "OBJECT_ID": "2023-065AL",
        "EPOCH": "2023-11-14T21:27:56.103840",
        "MEAN_MOTION": 15.02536505,
        "ECCENTRICITY": 0.0001228,
        "INCLINATION": 43.0036,
        "RA_OF_ASC_NODE": 139.3001,
        "ARG_OF_PERICENTER": 273.3001,
        "MEAN_ANOMALY": 86.7701,
        "EPHEMERIS_TYPE": 0,
        "CLASSIFICATION_TYPE": "U",
        "NORAD_CAT_ID": 56537,
        "ELEMENT_SET_NO": 999,
        "REV_AT_EPOCH": 2924,
        "BSTAR": 6.2974e-5,
        "MEAN_MOTION_DOT": 6.47e-6,
        "MEAN_MOTION_DDOT": 0
    },
    {
        "OBJECT_NAME": "STARLINK-6314",
        "OBJECT_ID": "2023-065AM",
        "EPOCH": "2023-11-14T19:06:35.739936",
        "MEAN_MOTION": 15.02530489,
        "ECCENTRICITY": 0.0001172,
        "INCLINATION": 43.004,
        "RA_OF_ASC_NODE": 113.3916,
        "ARG_OF_PERICENTER": 278.1726,
        "MEAN_ANOMALY": 81.8984,
        "EPHEMERIS_TYPE": 0,
        "CLASSIFICATION_TYPE": "U",
        "NORAD_CAT_ID": 56538,
        "ELEMENT_SET_NO": 999,
        "REV_AT_EPOCH": 2953,
        "BSTAR": -5.0282e-5,
        "MEAN_MOTION_DOT": -8.83e-6,
        "MEAN_MOTION_DDOT": 0
    },
    {
        "OBJECT_NAME": "STARLINK-6135",
        "OBJECT_ID": "2023-065AN",
        "EPOCH": "2023-11-14T21:23:08.458368",
        "MEAN_MOTION": 15.02534893,
        "ECCENTRICITY": 0.0001205,
        "INCLINATION": 43.0034,
        "RA_OF_ASC_NODE": 139.2756,
        "ARG_OF_PERICENTER": 277.3946,
        "MEAN_ANOMALY": 82.6759,
        "EPHEMERIS_TYPE": 0,
        "CLASSIFICATION_TYPE": "U",
        "NORAD_CAT_ID": 56539,
        "ELEMENT_SET_NO": 999,
        "REV_AT_EPOCH": 2924,
        "BSTAR": 5.722e-5,
        "MEAN_MOTION_DOT": 5.69e-6,
        "MEAN_MOTION_DDOT": 0
    },
    {
        "OBJECT_NAME": "STARLINK-6136",
        "OBJECT_ID": "2023-065AP",
        "EPOCH": "2023-11-14T21:39:07.437888",
        "MEAN_MOTION": 15.02537303,
        "ECCENTRICITY": 0.000127,
        "INCLINATION": 43.0034,
        "RA_OF_ASC_NODE": 139.3589,
        "ARG_OF_PERICENTER": 268.8739,
        "MEAN_ANOMALY": 91.1957,
        "EPHEMERIS_TYPE": 0,
        "CLASSIFICATION_TYPE": "U",
        "NORAD_CAT_ID": 56540,
        "ELEMENT_SET_NO": 999,
        "REV_AT_EPOCH": 2924,
        "BSTAR": 4.139e-5,
        "MEAN_MOTION_DOT": 3.56e-6,
        "MEAN_MOTION_DDOT": 0
    },
    {
        "OBJECT_NAME": "STARLINK-6249",
        "OBJECT_ID": "2023-065AQ",
        "EPOCH": "2023-11-14T21:10:21.075168",
        "MEAN_MOTION": 15.02538606,
        "ECCENTRICITY": 0.0001135,
        "INCLINATION": 43.0029,
        "RA_OF_ASC_NODE": 139.2073,
        "ARG_OF_PERICENTER": 274.001,
        "MEAN_ANOMALY": 86.0703,
        "EPHEMERIS_TYPE": 0,
        "CLASSIFICATION_TYPE": "U",
        "NORAD_CAT_ID": 56541,
        "ELEMENT_SET_NO": 999,
        "REV_AT_EPOCH": 2846,
        "BSTAR": 1.1924e-5,
        "MEAN_MOTION_DOT": -4.2e-7,
        "MEAN_MOTION_DDOT": 0
    },
    {
        "OBJECT_NAME": "STARLINK-6266",
        "OBJECT_ID": "2023-065AR",
        "EPOCH": "2023-11-14T21:18:20.897568",
        "MEAN_MOTION": 15.02534104,
        "ECCENTRICITY": 0.0001215,
        "INCLINATION": 43.0032,
        "RA_OF_ASC_NODE": 139.249,
        "ARG_OF_PERICENTER": 273.94,
        "MEAN_ANOMALY": 86.1304,
        "EPHEMERIS_TYPE": 0,
        "CLASSIFICATION_TYPE": "U",
        "NORAD_CAT_ID": 56542,
        "ELEMENT_SET_NO": 999,
        "REV_AT_EPOCH": 2924,
        "BSTAR": 3.4875e-5,
        "MEAN_MOTION_DOT": 2.68e-6,
        "MEAN_MOTION_DDOT": 0
    },
    {
        "OBJECT_NAME": "STARLINK-6228",
        "OBJECT_ID": "2023-065AS",
        "EPOCH": "2023-11-14T21:00:45.867168",
        "MEAN_MOTION": 15.02538327,
        "ECCENTRICITY": 0.0001187,
        "INCLINATION": 43.0031,
        "RA_OF_ASC_NODE": 139.1562,
        "ARG_OF_PERICENTER": 272.6517,
        "MEAN_ANOMALY": 87.4189,
        "EPHEMERIS_TYPE": 0,
        "CLASSIFICATION_TYPE": "U",
        "NORAD_CAT_ID": 56543,
        "ELEMENT_SET_NO": 999,
        "REV_AT_EPOCH": 2924,
        "BSTAR": -3.904e-5,
        "MEAN_MOTION_DOT": -7.31e-6,
        "MEAN_MOTION_DDOT": 0
    },
    {
        "OBJECT_NAME": "STARLINK-6226",
        "OBJECT_ID": "2023-065AT",
        "EPOCH": "2023-11-14T21:13:32.801088",
        "MEAN_MOTION": 15.02539089,
        "ECCENTRICITY": 0.0001293,
        "INCLINATION": 43.0032,
        "RA_OF_ASC_NODE": 139.2244,
        "ARG_OF_PERICENTER": 277.5245,
        "MEAN_ANOMALY": 82.545,
        "EPHEMERIS_TYPE": 0,
        "CLASSIFICATION_TYPE": "U",
        "NORAD_CAT_ID": 56544,
        "ELEMENT_SET_NO": 999,
        "REV_AT_EPOCH": 2924,
        "BSTAR": 8.7588e-5,
        "MEAN_MOTION_DOT": 9.8e-6,
        "MEAN_MOTION_DDOT": 0
    },
    {
        "OBJECT_NAME": "STARLINK-6086",
        "OBJECT_ID": "2023-065AU",
        "EPOCH": "2023-11-14T20:54:22.260672",
        "MEAN_MOTION": 15.02535791,
        "ECCENTRICITY": 0.0001219,
        "INCLINATION": 43.0033,
        "RA_OF_ASC_NODE": 139.123,
        "ARG_OF_PERICENTER": 272.5794,
        "MEAN_ANOMALY": 87.4909,
        "EPHEMERIS_TYPE": 0,
        "CLASSIFICATION_TYPE": "U",
        "NORAD_CAT_ID": 56545,
        "ELEMENT_SET_NO": 999,
        "REV_AT_EPOCH": 2924,
        "BSTAR": 2.8575e-5,
        "MEAN_MOTION_DOT": 1.82e-6,
        "MEAN_MOTION_DDOT": 0
    },
    {
        "OBJECT_NAME": "STARLINK-6187",
        "OBJECT_ID": "2023-065AV",
        "EPOCH": "2023-11-14T21:05:33.402912",
        "MEAN_MOTION": 15.02540347,
        "ECCENTRICITY": 0.0001137,
        "INCLINATION": 43.0027,
        "RA_OF_ASC_NODE": 139.182,
        "ARG_OF_PERICENTER": 268.9354,
        "MEAN_ANOMALY": 91.1358,
        "EPHEMERIS_TYPE": 0,
        "CLASSIFICATION_TYPE": "U",
        "NORAD_CAT_ID": 56546,
        "ELEMENT_SET_NO": 999,
        "REV_AT_EPOCH": 2846,
        "BSTAR": -9.9245e-5,
        "MEAN_MOTION_DOT": -1.544e-5,
        "MEAN_MOTION_DDOT": 0
    }
]
